{"type": "FeatureCollection", "features": [{"type": "Feature", "properties": {"norad_id": 26766, "name": "INTELSAT 10 (IS-10)", "group": "intelsat", "lat": 8.32837548283079, "lon": 135.31623703583404, "alt_km": 36152.22374758374, "timestamp": "2025-12-15T19:00:45.013777+00:00", "meta": {"OBJECT_NAME": "INTELSAT 10 (IS-10)", "OBJECT_ID": "2001-019A", "EPOCH": "2025-12-14T14:02:27.622752", "MEAN_MOTION": 0.99078028, "ECCENTRICITY": 0.00077179, "INCLINATION": 8.6342, "RA_OF_ASC_NODE": 61.1391, "ARG_OF_PERICENTER": 226.5687, "MEAN_ANOMALY": 137.2498, "EPHEMERIS_TYPE": 0, "CLASSIFICATION_TYPE": "U", "NORAD_CAT_ID": 26766, "ELEMENT_SET_NO": 999, "REV_AT_EPOCH": 4375, "BSTAR": 0, "MEAN_MOTION_DOT": -2.54e-06, "MEAN_MOTION_DDOT": 0}, "tle": {"line1": "1 26766U 01019A   25348.58504193 -.00000254  00000+0  00000+0 0  9995", "line2": "2 26766   8.6342  61.1391 0007717 226.5687 137.2498  0.99078028 43757"}}, "geometry": {"type": "Point", "coordinates": [135.31623703583404, 8.32837548283079]}}, {"type": "Feature", "properties": {"norad_id": 26900, "name": "INTELSAT 902 (IS-902)", "group": "intelsat", "lat": -5.165803445457065, "lon": -40.287022570061666, "alt_km": 35777.86323260673, "timestamp": "2025-12-15T19:00:45.013801+00:00", "meta": {"OBJECT_NAME": "INTELSAT 902 (IS-902)", "OBJECT_ID": "2001-039A", "EPOCH": "2025-12-11T04:42:42.842016", "MEAN_MOTION": 1.00272526, "ECCENTRICITY": 0.00044264, "INCLINATION": 5.6424, "RA_OF_ASC_NODE": 74.0881, "ARG_OF_PERICENTER": 184.9809, "MEAN_ANOMALY": 201.6699, "EPHEMERIS_TYPE": 0, "CLASSIFICATION_TYPE": "U", "NORAD_CAT_ID": 26900, "ELEMENT_SET_NO": 999, "REV_AT_EPOCH": 8881, "BSTAR": 0, "MEAN_MOTION_DOT": -2.78e-06, "MEAN_MOTION_DDOT": 0}, "tle": {"line1": "1 26900U 01039A   25345.19632919 -.00000278  00000+0  00000+0 0  9995", "line2": "2 26900   5.6424  74.0881 0004426 184.9809 201.6699  1.00272526 88816"}}, "geometry": {"type": "Point", "coordinates": [-40.287022570061666, -5.165803445457065]}}, {"type": "Feature", "properties": {"norad_id": 27380, "name": "INTELSAT 904 (IS-904)", "group": "intelsat", "lat": -6.457829141091597, "lon": -21.631094159187988, "alt_km": 35781.2629974541, "timestamp": "2025-12-15T19:00:45.013818+00:00", "meta": {"OBJECT_NAME": "INTELSAT 904 (IS-904)", "OBJECT_ID": "2002-007A", "EPOCH": "2025-12-14T11:33:26.896320", "MEAN_MOTION": 1.00272447, "ECCENTRICITY": 0.0001562, "INCLINATION": 6.459, "RA_OF_ASC_NODE": 71.4126, "ARG_OF_PERICENTER": 235.2201, "MEAN_ANOMALY": 278.628, "EPHEMERIS_TYPE": 0, "CLASSIFICATION_TYPE": "U", "NORAD_CAT_ID": 27380, "ELEMENT_SET_NO": 999, "REV_AT_EPOCH": 4991, "BSTAR": 0, "MEAN_MOTION_DOT": -2.1e-06, "MEAN_MOTION_DDOT": 0}, "tle": {"line1": "1 27380U 02007A   25348.48156130 -.00000210  00000+0  00000+0 0  9991", "line2": "2 27380   6.4590  71.4126 0001562 235.2201 278.6280  1.00272447 49919"}}, "geometry": {"type": "Point", "coordinates": [-21.631094159187988, -6.457829141091597]}}, {"type": "Feature", "properties": {"norad_id": 27426, "name": "DIRECTV 5 (TEMPO 1)", "group": "intelsat", "lat": -0.18670015366426782, "lon": -100.26382392141451, "alt_km": 35772.16518180328, "timestamp": "2025-12-15T19:00:45.013831+00:00", "meta": {"OBJECT_NAME": "DIRECTV 5 (TEMPO 1)", "OBJECT_ID": "2002-023A", "EPOCH": "2025-12-14T21:27:15.024960", "MEAN_MOTION": 1.00272395, "ECCENTRICITY": 0.00034192, "INCLINATION": 4.4076, "RA_OF_ASC_NODE": 77.6283, "ARG_OF_PERICENTER": 200.2517, "MEAN_ANOMALY": 17.6165, "EPHEMERIS_TYPE": 0, "CLASSIFICATION_TYPE": "U", "NORAD_CAT_ID": 27426, "ELEMENT_SET_NO": 999, "REV_AT_EPOCH": 8627, "BSTAR": 0, "MEAN_MOTION_DOT": -3.9e-07, "MEAN_MOTION_DDOT": 0}, "tle": {"line1": "1 27426U 02023A   25348.89392390 -.00000039  00000+0  00000+0 0  9994", "line2": "2 27426   4.4076  77.6283 0003419 200.2517  17.6165  1.00272395 86279"}}, "geometry": {"type": "Point", "coordinates": [-100.26382392141451, -0.18670015366426782]}}, {"type": "Feature", "properties": {"norad_id": 27438, "name": "INTELSAT 905 (IS-905)", "group": "intelsat", "lat": 2.0596243439647037, "lon": -127.20635668495922, "alt_km": 35776.562629043234, "timestamp": "2025-12-15T19:00:45.013844+00:00", "meta": {"OBJECT_NAME": "INTELSAT 905 (IS-905)", "OBJECT_ID": "2002-027A", "EPOCH": "2025-12-14T04:33:38.635200", "MEAN_MOTION": 1.00274201, "ECCENTRICITY": 0.00026501, "INCLINATION": 6.2894, "RA_OF_ASC_NODE": 72.0398, "ARG_OF_PERICENTER": 202.1249, "MEAN_ANOMALY": 100.1717, "EPHEMERIS_TYPE": 0, "CLASSIFICATION_TYPE": "U", "NORAD_CAT_ID": 27438, "ELEMENT_SET_NO": 999, "REV_AT_EPOCH": 4950, "BSTAR": 0, "MEAN_MOTION_DOT": 1.08e-06, "MEAN_MOTION_DDOT": 0}, "tle": {"line1": "1 27438U 02027A   25348.19003050  .00000108  00000+0  00000+0 0  9992", "line2": "2 27438   6.2894  72.0398 0002650 202.1249 100.1717  1.00274201 49509"}}, "geometry": {"type": "Point", "coordinates": [-127.20635668495922, 2.0596243439647037]}}, {"type": "Feature", "properties": {"norad_id": 27445, "name": "GALAXY 3C (G-3C)", "group": "intelsat", "lat": -0.8431960195722151, "lon": -85.00395678048163, "alt_km": 35788.02190844872, "timestamp": "2025-12-15T19:00:45.013857+00:00", "meta": {"OBJECT_NAME": "GALAXY 3C (G-3C)", "OBJECT_ID": "2002-030A", "EPOCH": "2025-12-14T19:48:54.444096", "MEAN_MOTION": 1.00271582, "ECCENTRICITY": 0.00010928, "INCLINATION": 3.2695, "RA_OF_ASC_NODE": 80.4845, "ARG_OF_PERICENTER": 82.3399, "MEAN_ANOMALY": 123.2761, "EPHEMERIS_TYPE": 0, "CLASSIFICATION_TYPE": "U", "NORAD_CAT_ID": 27445, "ELEMENT_SET_NO": 999, "REV_AT_EPOCH": 4464, "BSTAR": 0, "MEAN_MOTION_DOT": -1.34e-06, "MEAN_MOTION_DDOT": 0}, "tle": {"line1": "1 27445U 02030A   25348.82563014 -.00000134  00000+0  00000+0 0  9995", "line2": "2 27445   3.2695  80.4845 0001092  82.3399 123.2761  1.00271582 44640"}}, "geometry": {"type": "Point", "coordinates": [-85.00395678048163, -0.8431960195722151]}}, {"type": "Feature", "properties": {"norad_id": 27513, "name": "INTELSAT 906 (IS-906)", "group": "intelsat", "lat": -0.0863532506640607, "lon": 74.02247518377138, "alt_km": 35811.436011889804, "timestamp": "2025-12-15T19:00:45.013869+00:00", "meta": {"OBJECT_NAME": "INTELSAT 906 (IS-906)", "OBJECT_ID": "2002-041A", "EPOCH": "2025-12-14T20:34:20.091936", "MEAN_MOTION": 1.00271883, "ECCENTRICITY": 0.0006226, "INCLINATION": 5.3344, "RA_OF_ASC_NODE": 75.206, "ARG_OF_PERICENTER": 194.3565, "MEAN_ANOMALY": 186.9166, "EPHEMERIS_TYPE": 0, "CLASSIFICATION_TYPE": "U", "NORAD_CAT_ID": 27513, "ELEMENT_SET_NO": 999, "REV_AT_EPOCH": 8518, "BSTAR": 0, "MEAN_MOTION_DOT": 3e-07, "MEAN_MOTION_DDOT": 0}, "tle": {"line1": "1 27513U 02041A   25348.85717699  .00000030  00000+0  00000+0 0  9990", "line2": "2 27513   5.3344  75.2060 0006226 194.3565 186.9166  1.00271883 85187"}}, "geometry": {"type": "Point", "coordinates": [74.02247518377138, -0.0863532506640607]}}, {"type": "Feature", "properties": {"norad_id": 27954, "name": "GALAXY 13 (HORIZONS-1)", "group": "intelsat", "lat": 0.6641364826558145, "lon": -140.14222513219462, "alt_km": 35778.80000594213, "timestamp": "2025-12-15T19:00:45.013881+00:00", "meta": {"OBJECT_NAME": "GALAXY 13 (HORIZONS-1)", "OBJECT_ID": "2003-044A", "EPOCH": "2025-12-14T17:50:28.286880", "MEAN_MOTION": 1.00272435, "ECCENTRICITY": 0.00020726, "INCLINATION": 0.941, "RA_OF_ASC_NODE": 86.4423, "ARG_OF_PERICENTER": 171.732, "MEAN_ANOMALY": 303.097, "EPHEMERIS_TYPE": 0, "CLASSIFICATION_TYPE": "U", "NORAD_CAT_ID": 27954, "ELEMENT_SET_NO": 999, "REV_AT_EPOCH": 4472, "BSTAR": 0, "MEAN_MOTION_DOT": 1.52e-06, "MEAN_MOTION_DDOT": 0}, "tle": {"line1": "1 27954U 03044A   25348.74338295  .00000152  00000+0  00000+0 0  9997", "line2": "2 27954   0.9410  86.4423 0002072 171.7320 303.0970  1.00272435 44725"}}, "geometry": {"type": "Point", "coordinates": [-140.14222513219462, 0.6641364826558145]}}, {"type": "Feature", "properties": {"norad_id": 28358, "name": "INTELSAT 10-02", "group": "intelsat", "lat": -0.006924755468646179, "lon": 8.915132790088576, "alt_km": 35784.28560522193, "timestamp": "2025-12-15T19:00:45.013893+00:00", "meta": {"OBJECT_NAME": "INTELSAT 10-02", "OBJECT_ID": "2004-022A", "EPOCH": "2025-12-14T21:58:27.035616", "MEAN_MOTION": 1.00271245, "ECCENTRICITY": 0.00011131, "INCLINATION": 0.0251, "RA_OF_ASC_NODE": 71.4031, "ARG_OF_PERICENTER": 231.8182, "MEAN_ANOMALY": 109.2558, "EPHEMERIS_TYPE": 0, "CLASSIFICATION_TYPE": "U", "NORAD_CAT_ID": 28358, "ELEMENT_SET_NO": 999, "REV_AT_EPOCH": 7870, "BSTAR": 0, "MEAN_MOTION_DOT": 9e-08, "MEAN_MOTION_DDOT": 0}, "tle": {"line1": "1 28358U 04022A   25348.91559069  .00000009  00000+0  00000+0 0  9997", "line2": "2 28358   0.0251  71.4031 0001113 231.8182 109.2558  1.00271245 78707"}}, "geometry": {"type": "Point", "coordinates": [8.915132790088576, -0.006924755468646179]}}, {"type": "Feature", "properties": {"norad_id": 28626, "name": "XM-3 (RHYTHM)", "group": "intelsat", "lat": 0.10267207889676697, "lon": 109.70284501024662, "alt_km": 36163.173999963874, "timestamp": "2025-12-15T19:00:45.013905+00:00", "meta": {"OBJECT_NAME": "XM-3 (RHYTHM)", "OBJECT_ID": "2005-008A", "EPOCH": "2025-12-14T22:28:24.167712", "MEAN_MOTION": 0.98951535, "ECCENTRICITY": 0.00016705, "INCLINATION": 0.1803, "RA_OF_ASC_NODE": 81.7265, "ARG_OF_PERICENTER": 274.808, "MEAN_ANOMALY": 168.3001, "EPHEMERIS_TYPE": 0, "CLASSIFICATION_TYPE": "U", "NORAD_CAT_ID": 28626, "ELEMENT_SET_NO": 999, "REV_AT_EPOCH": 4077, "BSTAR": 0, "MEAN_MOTION_DOT": -7.4e-07, "MEAN_MOTION_DDOT": 0}, "tle": {"line1": "1 28626U 05008A   25348.93639083 -.00000074  00000+0  00000+0 0  9990", "line2": "2 28626   0.1803  81.7265 0001670 274.8080 168.3001  0.98951535 40772"}}, "geometry": {"type": "Point", "coordinates": [109.70284501024662, 0.10267207889676697]}}]}